ORBCOMM-X               
1 21576U 91050C   24277.41392866  .00002101  00000+0  64331-3 0  9990
2 21576  98.3791 342.8523 0002719 229.5249 130.5705 14.42780534745082
ORBCOMM FM01            
1 23545U 95017A   24277.55508282  .00019035  00000+0  23189-2 0  9990
2 23545  69.9689 351.2558 0006923 333.8016  26.2784 14.83393919574354
ORBCOMM FM02            
1 23546U 95017B   24277.54907669  .00023615  00000+0  28897-2 0  9992
2 23546  69.9714  10.9098 0008641 334.7486  25.3241 14.83138019573997
ORBCOMM FM08            
1 25112U 97084A   24277.12577907  .00011841  00000+0  34849-2 0  9993
2 25112  45.0132 160.2027 0007246  33.0818 327.0485 14.43737775404193
ORBCOMM FM10            
1 25113U 97084B   24277.00523233  .00011489  00000+0  33919-2 0  9999
2 25113  45.0147 162.7714 0005063   4.1087 355.9805 14.43610508579320
ORBCOMM FM11            
1 25114U 97084C   24277.38437209  .00007888  00000+0  23523-2 0  9996
2 25114  45.0128 161.1686 0005780   5.0954 354.9954 14.43424871404349
ORBCOMM FM12            
1 25115U 97084D   24277.41723394  .00007465  00000+0  22300-2 0  9997
2 25115  45.0135 160.7591 0004797   6.7653 353.3261 14.43393777404141
ORBCOMM FM09            
1 25116U 97084E   24277.36325835  .00007514  00000+0  22470-2 0  9993
2 25116  45.0141 161.7519 0005844 350.1366   9.9369 14.43337707404347
